{
  "type": "FeatureCollection",
  "features": [
    {
      "type": "Feature",
      "properties": {
        "norad_id": 30930,
        "name": "FENGYUN 1C DEB",
        "group": "fengyun-1c-debris",
        "lat": 24.322817317753543,
        "lon": 1.4583111159884719,
        "alt_km": 795.5416258860414,
        "timestamp": "2025-12-02T10:50:47.553634+00:00",
        "meta_object_name": "FENGYUN 1C DEB",
        "meta_object_id": "1999-025AZU",
        "meta_epoch": "2025-12-02T00:50:45.944736",
        "meta_mean_motion": 14.37351326,
        "meta_eccentricity": 0.0109452,
        "meta_inclination": 98.2167,
        "meta_ra_of_asc_node": 4.8048,
        "meta_arg_of_pericenter": 138.235,
        "meta_mean_anomaly": 252.7525,
        "meta_ephemeris_type": 0,
        "meta_classification_type": "U",
        "meta_norad_cat_id": 30930,
        "meta_element_set_no": 999,
        "meta_rev_at_epoch": 98178,
        "meta_bstar": 0.00042854,
        "meta_mean_motion_dot": 1.328e-05,
        "meta_mean_motion_ddot": 0,
        "tle_line1": "1 30930U 99025AZU 25336.03525399  .00001328  00000+0  42854-3 0  9994",
        "tle_line2": "2 30930  98.2167   4.8048 0109452 138.2350 252.7525 14.37351326981783"
      },
      "geometry": {
        "type": "Point",
        "coordinates": [
          1.4583111159884719,
          24.322817317753543
        ]
      }
    },
    {
      "type": "Feature",
      "properties": {
        "norad_id": 30931,
        "name": "FENGYUN 1C DEB",
        "group": "fengyun-1c-debris",
        "lat": 71.16538258153709,
        "lon": -117.78782166958901,
        "alt_km": 827.0774372040523,
        "timestamp": "2025-12-02T10:50:47.553644+00:00",
        "meta_object_name": "FENGYUN 1C DEB",
        "meta_object_id": "1999-025AZV",
        "meta_epoch": "2025-12-02T03:47:35.105280",
        "meta_mean_motion": 14.01483755,
        "meta_eccentricity": 0.00934,
        "meta_inclination": 99.1741,
        "meta_ra_of_asc_node": 33.6379,
        "meta_arg_of_pericenter": 70.6138,
        "meta_mean_anomaly": 353.2512,
        "meta_ephemeris_type": 0,
        "meta_classification_type": "U",
        "meta_norad_cat_id": 30931,
        "meta_element_set_no": 999,
        "meta_rev_at_epoch": 95777,
        "meta_bstar": 0.00063376,
        "meta_mean_motion_dot": 9.5e-06,
        "meta_mean_motion_ddot": 0,
        "tle_line1": "1 30931U 99025AZV 25336.15804520  .00000950  00000+0  63376-3 0  9996",
        "tle_line2": "2 30931  99.1741  33.6379 0093400  70.6138 353.2512 14.01483755957775"
      },
      "geometry": {
        "type": "Point",
        "coordinates": [
          -117.78782166958901,
          71.16538258153709
        ]
      }
    },
    {
      "type": "Feature",
      "properties": {
        "norad_id": 30932,
        "name": "FENGYUN 1C DEB",
        "group": "fengyun-1c-debris",
        "lat": -3.0000142740706894,
        "lon": 88.70099935264389,
        "alt_km": 839.5485892548595,
        "timestamp": "2025-12-02T10:50:47.553654+00:00",
        "meta_object_name": "FENGYUN 1C DEB",
        "meta_object_id": "1999-025AZW",
        "meta_epoch": "2025-11-30T05:48:17.069472",
        "meta_mean_motion": 14.26527915,
        "meta_eccentricity": 0.00599834,
        "meta_inclination": 98.9075,
        "meta_ra_of_asc_node": 266.924,
        "meta_arg_of_pericenter": 329.5658,
        "meta_mean_anomaly": 30.2045,
        "meta_ephemeris_type": 0,
        "meta_classification_type": "U",
        "meta_norad_cat_id": 30932,
        "meta_element_set_no": 999,
        "meta_rev_at_epoch": 96216,
        "meta_bstar": 0.0033535831,
        "meta_mean_motion_dot": 8.202e-05,
        "meta_mean_motion_ddot": 0,
        "tle_line1": "1 30932U 99025AZW 25334.24186423  .00008202  00000+0  33536-2 0  9992",
        "tle_line2": "2 30932  98.9075 266.9240 0059983 329.5658  30.2045 14.26527915962168"
      },
      "geometry": {
        "type": "Point",
        "coordinates": [
          88.70099935264389,
          -3.0000142740706894
        ]
      }
    },
    {
      "type": "Feature",
      "properties": {
        "norad_id": 30933,
        "name": "FENGYUN 1C DEB",
        "group": "fengyun-1c-debris",
        "lat": 80.92499112356678,
        "lon": -127.43671160462581,
        "alt_km": 771.0884059437149,
        "timestamp": "2025-12-02T10:50:47.553664+00:00",
        "meta_object_name": "FENGYUN 1C DEB",
        "meta_object_id": "1999-025AZX",
        "meta_epoch": "2025-12-01T21:20:23.614944",
        "meta_mean_motion": 14.35939149,
        "meta_eccentricity": 0.0078353,
        "meta_inclination": 99.0461,
        "meta_ra_of_asc_node": 317.8448,
        "meta_arg_of_pericenter": 353.7166,
        "meta_mean_anomaly": 67.1608,
        "meta_ephemeris_type": 0,
        "meta_classification_type": "U",
        "meta_norad_cat_id": 30933,
        "meta_element_set_no": 999,
        "meta_rev_at_epoch": 95716,
        "meta_bstar": 0.0059519,
        "meta_mean_motion_dot": 0.00017884,
        "meta_mean_motion_ddot": 0,
        "tle_line1": "1 30933U 99025AZX 25335.88916221  .00017884  00000+0  59519-2 0  9996",
        "tle_line2": "2 30933  99.0461 317.8448 0078353 353.7166  67.1608 14.35939149957165"
      },
      "geometry": {
        "type": "Point",
        "coordinates": [
          -127.43671160462581,
          80.92499112356678
        ]
      }
    },
    {
      "type": "Feature",
      "properties": {
        "norad_id": 30934,
        "name": "FENGYUN 1C DEB",
        "group": "fengyun-1c-debris",
        "lat": 77.45230639909882,
        "lon": 78.59239167541524,
        "alt_km": 826.1685643169822,
        "timestamp": "2025-12-02T10:50:47.553687+00:00",
        "meta_object_name": "FENGYUN 1C DEB",
        "meta_object_id": "1999-025AZY",
        "meta_epoch": "2025-12-02T03:14:24.306720",
        "meta_mean_motion": 13.46695753,
        "meta_eccentricity": 0.0339916,
        "meta_inclination": 98.7653,
        "meta_ra_of_asc_node": 214.432,
        "meta_arg_of_pericenter": 108.5288,
        "meta_mean_anomaly": 255.3093,
        "meta_ephemeris_type": 0,
        "meta_classification_type": "U",
        "meta_norad_cat_id": 30934,
        "meta_element_set_no": 999,
        "meta_rev_at_epoch": 91565,
        "meta_bstar": 0.0018635,
        "meta_mean_motion_dot": 1.566e-05,
        "meta_mean_motion_ddot": 0,
        "tle_line1": "1 30934U 99025AZY 25336.13500355  .00001566  00000+0  18635-2 0  9997",
        "tle_line2": "2 30934  98.7653 214.4320 0339916 108.5288 255.3093 13.46695753915650"
      },
      "geometry": {
        "type": "Point",
        "coordinates": [
          78.59239167541524,
          77.45230639909882
        ]
      }
    },
    {
      "type": "Feature",
      "properties": {
        "norad_id": 30936,
        "name": "FENGYUN 1C DEB",
        "group": "fengyun-1c-debris",
        "lat": 2.948135050652012,
        "lon": -172.04596696773157,
        "alt_km": 843.5563621150204,
        "timestamp": "2025-12-02T10:50:47.553698+00:00",
        "meta_object_name": "FENGYUN 1C DEB",
        "meta_object_id": "1999-025BAA",
        "meta_epoch": "2025-12-02T01:50:29.097024",
        "meta_mean_motion": 14.23333186,
        "meta_eccentricity": 0.0046128,
        "meta_inclination": 98.5828,
        "meta_ra_of_asc_node": 7.1425,
        "meta_arg_of_pericenter": 322.3872,
        "meta_mean_anomaly": 93.3187,
        "meta_ephemeris_type": 0,
        "meta_classification_type": "U",
        "meta_norad_cat_id": 30936,
        "meta_element_set_no": 999,
        "meta_rev_at_epoch": 96981,
        "meta_bstar": 0.00058651,
        "meta_mean_motion_dot": 1.301e-05,
        "meta_mean_motion_ddot": 0,
        "tle_line1": "1 30936U 99025BAA 25336.07672566  .00001301  00000+0  58651-3 0  9996",
        "tle_line2": "2 30936  98.5828   7.1425 0046128 322.3872  93.3187 14.23333186969818"
      },
      "geometry": {
        "type": "Point",
        "coordinates": [
          -172.04596696773157,
          2.948135050652012
        ]
      }
    },
    {
      "type": "Feature",
      "properties": {
        "norad_id": 30937,
        "name": "FENGYUN 1C DEB",
        "group": "fengyun-1c-debris",
        "lat": -45.21748298732848,
        "lon": 38.23972506573629,
        "alt_km": 948.7947834656798,
        "timestamp": "2025-12-02T10:50:47.553708+00:00",
        "meta_object_name": "FENGYUN 1C DEB",
        "meta_object_id": "1999-025BAB",
        "meta_epoch": "2025-12-02T02:43:14.614176",
        "meta_mean_motion": 13.95582,
        "meta_eccentricity": 0.0075972,
        "meta_inclination": 99.0906,
        "meta_ra_of_asc_node": 28.622,
        "meta_arg_of_pericenter": 81.9832,
        "meta_mean_anomaly": 332.7334,
        "meta_ephemeris_type": 0,
        "meta_classification_type": "U",
        "meta_norad_cat_id": 30937,
        "meta_element_set_no": 999,
        "meta_rev_at_epoch": 95568,
        "meta_bstar": 5.163e-05,
        "meta_mean_motion_dot": 2.9e-07,
        "meta_mean_motion_ddot": 0,
        "tle_line1": "1 30937U 99025BAB 25336.11336359  .00000029  00000+0  51630-4 0  9996",
        "tle_line2": "2 30937  99.0906  28.6220 0075972  81.9832 332.7334 13.95582000955689"
      },
      "geometry": {
        "type": "Point",
        "coordinates": [
          38.23972506573629,
          -45.21748298732848
        ]
      }
    }
  ]
}